start=new Date('2021-11-29T00:00:00.000Z').valueOf();
sats=[{"BSTAR":"0.00008324300000","RCS_SIZE":"LARGE","PERIAPSIS":"545.888","REF_FRAME":"TEME","ARG_OF_PERICENTER":"61.9288","SITE":"AFETR","MEAN_MOTION_DDOT":"0.0000000000000","REV_AT_EPOCH":"2980","GP_ID":"190687224","ELEMENT_SET_NO":"999","OBJECT_ID":"2021-041AC","MEAN_MOTION":"15.06399929","CLASSIFICATION_TYPE":"U","PERIOD":"95.592","MEAN_ELEMENT_THEORY":"SGP4","APOAPSIS":"548.540","NORAD_CAT_ID":"48579","OBJECT_TYPE":"PAYLOAD","SEMIMAJOR_AXIS":"6925.349","TLE_LINE2":"2 48579  53.0568 302.7263 0001915  61.9288 298.1895 15.06399929 29809","EPHEMERIS_TYPE":"0","CENTER_NAME":"EARTH","INCLINATION":"53.0568","TIME_SYSTEM":"UTC","OBJECT_NAME":"STARLINK-2233","EPOCH":"2021-11-28T21:49:27.071040","DECAY_DATE":null,"TLE_LINE1":"1 48579U 21041AC  21332.90934110  .00000958  00000-0  83243-4 0  9995","FILE":"3226391","RA_OF_ASC_NODE":"302.7263","MEAN_ANOMALY":"298.1895","MEAN_MOTION_DOT":"0.00000958","LAUNCH_DATE":"2021-05-15","COUNTRY_CODE":"US","ECCENTRICITY":"0.00019150"},{"TLE_LINE2":"2 48580  53.0552 277.6893 0002843  52.6299 169.9610 15.06398240  3585","SEMIMAJOR_AXIS":"6925.354","OBJECT_NAME":"STARLINK-2234","EPOCH":"2021-11-28T22:00:01.999584","TIME_SYSTEM":"UTC","INCLINATION":"53.0552","CENTER_NAME":"EARTH","EPHEMERIS_TYPE":"0","FILE":"3226391","TLE_LINE1":"1 48580U 21041AD  21332.91668981 -.00004699  00000-0 -29669-3 0  9997","DECAY_DATE":null,"ECCENTRICITY":"0.00028430","COUNTRY_CODE":"US","LAUNCH_DATE":"2021-05-15","MEAN_MOTION_DOT":"-0.00004699","MEAN_ANOMALY":"169.9610","RA_OF_ASC_NODE":"277.6893","SITE":"AFETR","MEAN_MOTION_DDOT":"0.0000000000000","ARG_OF_PERICENTER":"52.6299","REF_FRAME":"TEME","PERIAPSIS":"545.250","RCS_SIZE":"LARGE","BSTAR":"-0.00029669000000","ELEMENT_SET_NO":"999","GP_ID":"190687625","REV_AT_EPOCH":"358","APOAPSIS":"549.188","PERIOD":"95.592","MEAN_ELEMENT_THEORY":"SGP4","CLASSIFICATION_TYPE":"U","MEAN_MOTION":"15.06398240","OBJECT_ID":"2021-041AD","OBJECT_TYPE":"PAYLOAD","NORAD_CAT_ID":"48580"},{"APOAPSIS":"513.939","PERIOD":"94.887","MEAN_ELEMENT_THEORY":"SGP4","CLASSIFICATION_TYPE":"U","MEAN_MOTION":"15.17599957","OBJECT_ID":"2021-041AE","OBJECT_TYPE":"PAYLOAD","NORAD_CAT_ID":"48581","SITE":"AFETR","ARG_OF_PERICENTER":"86.3968","MEAN_MOTION_DDOT":"0.0000000000000","REF_FRAME":"TEME","PERIAPSIS":"512.258","RCS_SIZE":"LARGE","BSTAR":"-0.05668500000000","ELEMENT_SET_NO":"999","GP_ID":"190687372","REV_AT_EPOCH":"364","FILE":"3226391","TLE_LINE1":"1 48581U 21041AE  21332.91668981 -.01069234  00000-0 -56685-1 0  9991","DECAY_DATE":null,"ECCENTRICITY":"0.00012200","COUNTRY_CODE":"US","LAUNCH_DATE":"2021-05-15","MEAN_MOTION_DOT":"-0.01069234","MEAN_ANOMALY":"251.6832","RA_OF_ASC_NODE":"267.7502","TLE_LINE2":"2 48581  53.0541 267.7502 0001220  86.3968 251.6832 15.17599957  3648","SEMIMAJOR_AXIS":"6891.234","OBJECT_NAME":"STARLINK-2235","EPOCH":"2021-11-28T22:00:01.999584","TIME_SYSTEM":"UTC","INCLINATION":"53.0541","CENTER_NAME":"EARTH","EPHEMERIS_TYPE":"0"},{"ELEMENT_SET_NO":"999","GP_ID":"190687989","REV_AT_EPOCH":"363","ARG_OF_PERICENTER":"64.0942","SITE":"AFETR","MEAN_MOTION_DDOT":"0.0000000000000","REF_FRAME":"TEME","PERIAPSIS":"545.897","RCS_SIZE":"MEDIUM","BSTAR":"-0.00192440000000","OBJECT_TYPE":"PAYLOAD","NORAD_CAT_ID":"48582","APOAPSIS":"548.433","PERIOD":"95.591","MEAN_ELEMENT_THEORY":"SGP4","CLASSIFICATION_TYPE":"U","MEAN_MOTION":"15.06415824","OBJECT_ID":"2021-041AF","OBJECT_NAME":"STARLINK-2236","EPOCH":"2021-11-28T22:00:01.999584","TIME_SYSTEM":"UTC","INCLINATION":"53.0528","CENTER_NAME":"EARTH","EPHEMERIS_TYPE":"0","TLE_LINE2":"2 48582  53.0528 267.6865 0001831  64.0942 193.5551 15.06415824  3637","SEMIMAJOR_AXIS":"6925.300","ECCENTRICITY":"0.00018310","COUNTRY_CODE":"US","LAUNCH_DATE":"2021-05-15","MEAN_MOTION_DOT":"-0.00028843","MEAN_ANOMALY":"193.5551","RA_OF_ASC_NODE":"267.6865","FILE":"3226391","TLE_LINE1":"1 48582U 21041AF  21332.91668981 -.00028843  00000-0 -19244-2 0  9993","DECAY_DATE":null},{"MEAN_MOTION_DOT":"0.00000020","LAUNCH_DATE":"2021-05-15","ECCENTRICITY":"0.00016690","COUNTRY_CODE":"US","MEAN_ANOMALY":"304.2286","RA_OF_ASC_NODE":"313.7118","FILE":"3226391","DECAY_DATE":null,"TLE_LINE1":"1 48583U 21041AG  21332.69095611  .00000020  00000-0  20279-4 0  9990","TIME_SYSTEM":"UTC","INCLINATION":"53.0570","EPOCH":"2021-11-28T16:34:58.607904","OBJECT_NAME":"STARLINK-2237","EPHEMERIS_TYPE":"0","CENTER_NAME":"EARTH","SEMIMAJOR_AXIS":"6925.355","TLE_LINE2":"2 48583  53.0570 313.7118 0001669  55.8861 304.2286 15.06398049 29639","OBJECT_TYPE":"PAYLOAD","NORAD_CAT_ID":"48583","PERIOD":"95.592","MEAN_ELEMENT_THEORY":"SGP4","APOAPSIS":"548.375","MEAN_MOTION":"15.06398049","OBJECT_ID":"2021-041AG","CLASSIFICATION_TYPE":"U","REV_AT_EPOCH":"2963","ELEMENT_SET_NO":"999","GP_ID":"190687500","PERIAPSIS":"546.064","MEAN_MOTION_DDOT":"0.0000000000000","SITE":"AFETR","ARG_OF_PERICENTER":"55.8861","REF_FRAME":"TEME","BSTAR":"0.00002027900000","RCS_SIZE":"LARGE"},{"OBJECT_TYPE":"PAYLOAD","NORAD_CAT_ID":"48584","APOAPSIS":"548.426","PERIOD":"95.592","MEAN_ELEMENT_THEORY":"SGP4","CLASSIFICATION_TYPE":"U","OBJECT_ID":"2021-041AH","MEAN_MOTION":"15.06401932","GP_ID":"190687351","ELEMENT_SET_NO":"999","REV_AT_EPOCH":"2966","REF_FRAME":"TEME","SITE":"AFETR","ARG_OF_PERICENTER":"58.0367","MEAN_MOTION_DDOT":"0.0000000000000","PERIAPSIS":"545.989","RCS_SIZE":"LARGE","BSTAR":"0.00004744800000","COUNTRY_CODE":"US","ECCENTRICITY":"0.00017590","MEAN_MOTION_DOT":"0.00000425","LAUNCH_DATE":"2021-05-15","RA_OF_ASC_NODE":"312.6233","MEAN_ANOMALY":"302.0793","FILE":"3226391","TLE_LINE1":"1 48584U 21041AH  21332.93053995  .00000425  00000-0  47448-4 0  9993","DECAY_DATE":null,"OBJECT_NAME":"STARLINK-2238","EPOCH":"2021-11-28T22:19:58.651680","INCLINATION":"53.0575","TIME_SYSTEM":"UTC","CENTER_NAME":"EARTH","EPHEMERIS_TYPE":"0","TLE_LINE2":"2 48584  53.0575 312.6233 0001759  58.0367 302.0793 15.06401932 29665","SEMIMAJOR_AXIS":"6925.343"},{"FILE":"3226391","DECAY_DATE":null,"TLE_LINE1":"1 48585U 21041AJ  21332.94159896  .00000157  00000-0  29468-4 0  9996","LAUNCH_DATE":"2021-05-15","MEAN_MOTION_DOT":"0.00000157","ECCENTRICITY":"0.00017830","COUNTRY_CODE":"US","MEAN_ANOMALY":"299.1159","RA_OF_ASC_NODE":"312.5785","SEMIMAJOR_AXIS":"6925.370","TLE_LINE2":"2 48585  53.0566 312.5785 0001783  61.0008 299.1159 15.06393161 29666","TIME_SYSTEM":"UTC","INCLINATION":"53.0566","EPOCH":"2021-11-28T22:35:54.150144","OBJECT_NAME":"STARLINK-2240","EPHEMERIS_TYPE":"0","CENTER_NAME":"EARTH","MEAN_ELEMENT_THEORY":"SGP4","PERIOD":"95.593","APOAPSIS":"548.469","MEAN_MOTION":"15.06393161","OBJECT_ID":"2021-041AJ","CLASSIFICATION_TYPE":"U","OBJECT_TYPE":"PAYLOAD","NORAD_CAT_ID":"48585","PERIAPSIS":"546.000","SITE":"AFETR","MEAN_MOTION_DDOT":"0.0000000000000","ARG_OF_PERICENTER":"61.0008","REF_FRAME":"TEME","BSTAR":"0.00002946800000","RCS_SIZE":"LARGE","REV_AT_EPOCH":"2966","ELEMENT_SET_NO":"999","GP_ID":"190687097"},{"CLASSIFICATION_TYPE":"U","MEAN_MOTION":"15.06402066","OBJECT_ID":"2021-041AK","APOAPSIS":"548.538","MEAN_ELEMENT_THEORY":"SGP4","PERIOD":"95.592","NORAD_CAT_ID":"48586","OBJECT_TYPE":"PAYLOAD","RCS_SIZE":"LARGE","BSTAR":"0.00004951900000","ARG_OF_PERICENTER":"58.5865","SITE":"AFETR","MEAN_MOTION_DDOT":"0.0000000000000","REF_FRAME":"TEME","PERIAPSIS":"545.876","ELEMENT_SET_NO":"999","GP_ID":"190687755","REV_AT_EPOCH":"2962","TLE_LINE1":"1 48586U 21041AK  21332.66883322  .00000456  00000-0  49519-4 0  9995","DECAY_DATE":null,"FILE":"3226391","MEAN_ANOMALY":"301.5311","RA_OF_ASC_NODE":"313.8007","COUNTRY_CODE":"US","ECCENTRICITY":"0.00019220","MEAN_MOTION_DOT":"0.00000456","LAUNCH_DATE":"2021-05-15","TLE_LINE2":"2 48586  53.0561 313.8007 0001922  58.5865 301.5311 15.06402066 29629","SEMIMAJOR_AXIS":"6925.342","CENTER_NAME":"EARTH","EPHEMERIS_TYPE":"0","OBJECT_NAME":"STARLINK-2241","EPOCH":"2021-11-28T16:03:07.190208","TIME_SYSTEM":"UTC","INCLINATION":"53.0561"},{"MEAN_ANOMALY":"304.1802","RA_OF_ASC_NODE":"312.5759","LAUNCH_DATE":"2021-05-15","MEAN_MOTION_DOT":"0.00001389","COUNTRY_CODE":"US","ECCENTRICITY":"0.00016700","DECAY_DATE":null,"TLE_LINE1":"1 48587U 21041AL  21332.94064651  .00001389  00000-0  11215-3 0  9990","FILE":"3226391","EPHEMERIS_TYPE":"0","CENTER_NAME":"EARTH","TIME_SYSTEM":"UTC","INCLINATION":"53.0571","OBJECT_NAME":"STARLINK-2242","EPOCH":"2021-11-28T22:34:31.858464","SEMIMAJOR_AXIS":"6925.345","TLE_LINE2":"2 48587  53.0571 312.5759 0001670  55.9345 304.1802 15.06401173 29661","NORAD_CAT_ID":"48587","OBJECT_TYPE":"PAYLOAD","MEAN_MOTION":"15.06401173","OBJECT_ID":"2021-041AL","CLASSIFICATION_TYPE":"U","PERIOD":"95.592","MEAN_ELEMENT_THEORY":"SGP4","APOAPSIS":"548.366","REV_AT_EPOCH":"2966","ELEMENT_SET_NO":"999","GP_ID":"190687225","BSTAR":"0.00011215000000","RCS_SIZE":"LARGE","PERIAPSIS":"546.053","MEAN_MOTION_DDOT":"0.0000000000000","SITE":"AFETR","ARG_OF_PERICENTER":"55.9345","REF_FRAME":"TEME"},{"GP_ID":"190687626","ELEMENT_SET_NO":"999","REV_AT_EPOCH":"2980","RCS_SIZE":"LARGE","BSTAR":"-0.00002596300000","REF_FRAME":"TEME","SITE":"AFETR","MEAN_MOTION_DDOT":"0.0000000000000","ARG_OF_PERICENTER":"62.9969","PERIAPSIS":"545.550","NORAD_CAT_ID":"48588","OBJECT_TYPE":"PAYLOAD","CLASSIFICATION_TYPE":"U","OBJECT_ID":"2021-041AM","MEAN_MOTION":"15.06399202","APOAPSIS":"548.882","PERIOD":"95.592","MEAN_ELEMENT_THEORY":"SGP4","CENTER_NAME":"EARTH","EPHEMERIS_TYPE":"0","EPOCH":"2021-11-28T22:00:04.544928","OBJECT_NAME":"STARLINK-2244","INCLINATION":"53.0540","TIME_SYSTEM":"UTC","TLE_LINE2":"2 48588  53.0540 302.7013 0002405  62.9969 297.1265 15.06399202 29808","SEMIMAJOR_AXIS":"6925.351","RA_OF_ASC_NODE":"302.7013","MEAN_ANOMALY":"297.1265","ECCENTRICITY":"0.00024050","COUNTRY_CODE":"US","LAUNCH_DATE":"2021-05-15","MEAN_MOTION_DOT":"-0.00000669","TLE_LINE1":"1 48588U 21041AM  21332.91671927 -.00000669  00000-0 -25963-4 0  9996","DECAY_DATE":null,"FILE":"3226391"}];
